CCSDS_OMM_VERS = 2.0
CREATION_DATE  = 
ORIGINATOR     = 

OBJECT_NAME    = STARLINK-36787
OBJECT_ID      = 2026-042AB
CENTER_NAME    = EARTH
REF_FRAME      = TEME
TIME_SYSTEM    = UTC
MEAN_ELEMENT_THEORY = SGP/SGP4

EPOCH          = 2026-03-27T16:00:01.999584
MEAN_MOTION    = 15.75263541
ECCENTRICITY   = .00010853
INCLINATION    = 53.1593
RA_OF_ASC_NODE = 104.8129
ARG_OF_PERICENTER = 94.2361
MEAN_ANOMALY   = 293.8406

EPHEMERIS_TYPE = 0
CLASSIFICATION_TYPE = U
NORAD_CAT_ID   = 68094
ELEMENT_SET_NO = 999
REV_AT_EPOCH   = 493
BSTAR          = -.39458536E-3
MEAN_MOTION_DOT = -.60756E-3
MEAN_MOTION_DDOT = 0

CCSDS_OMM_VERS = 2.0
CREATION_DATE  = 
ORIGINATOR     = 

OBJECT_NAME    = STARLINK-36790
OBJECT_ID      = 2026-042AC
CENTER_NAME    = EARTH
REF_FRAME      = TEME
TIME_SYSTEM    = UTC
MEAN_ELEMENT_THEORY = SGP/SGP4

EPOCH          = 2026-03-28T12:00:00.998784
MEAN_MOTION    = 15.75234842
ECCENTRICITY   = .0000998
INCLINATION    = 53.1585
RA_OF_ASC_NODE = 100.4609
ARG_OF_PERICENTER = 68.7195
MEAN_ANOMALY   = 110.7906

EPHEMERIS_TYPE = 0
CLASSIFICATION_TYPE = U
NORAD_CAT_ID   = 68095
ELEMENT_SET_NO = 999
REV_AT_EPOCH   = 506
BSTAR          = -.4375E-3
MEAN_MOTION_DOT = -.67159E-3
MEAN_MOTION_DDOT = 0

CCSDS_OMM_VERS = 2.0
CREATION_DATE  = 
ORIGINATOR     = 

OBJECT_NAME    = STARLINK-36328
OBJECT_ID      = 2026-042AD
CENTER_NAME    = EARTH
REF_FRAME      = TEME
TIME_SYSTEM    = UTC
MEAN_ELEMENT_THEORY = SGP/SGP4

EPOCH          = 2026-03-27T12:05:19.595328
MEAN_MOTION    = 15.78521578
ECCENTRICITY   = .0000907
INCLINATION    = 53.1583
RA_OF_ASC_NODE = 105.2594
ARG_OF_PERICENTER = 116.3541
MEAN_ANOMALY   = 243.7574

EPHEMERIS_TYPE = 0
CLASSIFICATION_TYPE = U
NORAD_CAT_ID   = 68096
ELEMENT_SET_NO = 999
REV_AT_EPOCH   = 489
BSTAR          = -.49254E-2
MEAN_MOTION_DOT = -.796908E-2
MEAN_MOTION_DDOT = 0

CCSDS_OMM_VERS = 2.0
CREATION_DATE  = 
ORIGINATOR     = 

OBJECT_NAME    = STARLINK-36853
OBJECT_ID      = 2026-042AE
CENTER_NAME    = EARTH
REF_FRAME      = TEME
TIME_SYSTEM    = UTC
MEAN_ELEMENT_THEORY = SGP/SGP4

EPOCH          = 2026-03-27T18:10:48.142560
MEAN_MOTION    = 15.80984131
ECCENTRICITY   = .00031425
INCLINATION    = 53.1580
RA_OF_ASC_NODE = 103.9995
ARG_OF_PERICENTER = 75.7895
MEAN_ANOMALY   = 284.3477

EPHEMERIS_TYPE = 0
CLASSIFICATION_TYPE = U
NORAD_CAT_ID   = 68097
ELEMENT_SET_NO = 999
REV_AT_EPOCH   = 493
BSTAR          = .19782616E-2
MEAN_MOTION_DOT = .411016E-2
MEAN_MOTION_DDOT = 0

CCSDS_OMM_VERS = 2.0
CREATION_DATE  = 
ORIGINATOR     = 

OBJECT_NAME    = GLOBAL-34
OBJECT_ID      = 2026-043A
CENTER_NAME    = EARTH
REF_FRAME      = TEME
TIME_SYSTEM    = UTC
MEAN_ELEMENT_THEORY = SGP/SGP4

EPOCH          = 2026-03-28T09:14:45.973248
MEAN_MOTION    = 15.31851761
ECCENTRICITY   = .0003807
INCLINATION    = 42.0228
RA_OF_ASC_NODE = 327.5663
ARG_OF_PERICENTER = 53.1656
MEAN_ANOMALY   = 306.9530

EPHEMERIS_TYPE = 0
CLASSIFICATION_TYPE = U
NORAD_CAT_ID   = 68098
ELEMENT_SET_NO = 999
REV_AT_EPOCH   = 343
BSTAR          = .44599E-3
MEAN_MOTION_DOT = .13789E-3
MEAN_MOTION_DDOT = 0

CCSDS_OMM_VERS = 2.0
CREATION_DATE  = 
ORIGINATOR     = 

OBJECT_NAME    = STARLINK-37022
OBJECT_ID      = 2026-044A
CENTER_NAME    = EARTH
REF_FRAME      = TEME
TIME_SYSTEM    = UTC
MEAN_ELEMENT_THEORY = SGP/SGP4

EPOCH          = 2026-03-28T10:55:18.291648
MEAN_MOTION    = 15.75145378
ECCENTRICITY   = .0001857
INCLINATION    = 97.2841
RA_OF_ASC_NODE = 48.5128
ARG_OF_PERICENTER = 66.8014
MEAN_ANOMALY   = 293.3446

EPHEMERIS_TYPE = 0
CLASSIFICATION_TYPE = U
NORAD_CAT_ID   = 68101
ELEMENT_SET_NO = 999
REV_AT_EPOCH   = 443
BSTAR          = .19606E-3
MEAN_MOTION_DOT = .29158E-3
MEAN_MOTION_DDOT = 0

CCSDS_OMM_VERS = 2.0
CREATION_DATE  = 
ORIGINATOR     = 

OBJECT_NAME    = STARLINK-37046
OBJECT_ID      = 2026-044B
CENTER_NAME    = EARTH
REF_FRAME      = TEME
TIME_SYSTEM    = UTC
MEAN_ELEMENT_THEORY = SGP/SGP4

EPOCH          = 2026-03-28T10:53:46.097664
MEAN_MOTION    = 15.75264760
ECCENTRICITY   = .0001481
INCLINATION    = 97.2839
RA_OF_ASC_NODE = 48.5148
ARG_OF_PERICENTER = 106.6028
MEAN_ANOMALY   = 253.5400

EPHEMERIS_TYPE = 0
CLASSIFICATION_TYPE = U
NORAD_CAT_ID   = 68102
ELEMENT_SET_NO = 999
REV_AT_EPOCH   = 443
BSTAR          = .13748E-2
MEAN_MOTION_DOT = .210759E-2
MEAN_MOTION_DDOT = 0

CCSDS_OMM_VERS = 2.0
CREATION_DATE  = 
ORIGINATOR     = 

OBJECT_NAME    = STARLINK-37018
OBJECT_ID      = 2026-044C
CENTER_NAME    = EARTH
REF_FRAME      = TEME
TIME_SYSTEM    = UTC
MEAN_ELEMENT_THEORY = SGP/SGP4

EPOCH          = 2026-03-28T10:51:44.258976
MEAN_MOTION    = 15.75254163
ECCENTRICITY   = .0001561
INCLINATION    = 97.2840
RA_OF_ASC_NODE = 48.5168
ARG_OF_PERICENTER = 113.7916
MEAN_ANOMALY   = 246.3513

EPHEMERIS_TYPE = 0
CLASSIFICATION_TYPE = U
NORAD_CAT_ID   = 68103
ELEMENT_SET_NO = 999
REV_AT_EPOCH   = 443
BSTAR          = .12432E-2
MEAN_MOTION_DOT = .19002E-2
MEAN_MOTION_DDOT = 0

CCSDS_OMM_VERS = 2.0
CREATION_DATE  = 
ORIGINATOR     = 

OBJECT_NAME    = STARLINK-37041
OBJECT_ID      = 2026-044D
CENTER_NAME    = EARTH
REF_FRAME      = TEME
TIME_SYSTEM    = UTC
MEAN_ELEMENT_THEORY = SGP/SGP4

EPOCH          = 2026-03-28T10:50:12.981696
MEAN_MOTION    = 15.75257050
ECCENTRICITY   = .0002165
INCLINATION    = 97.2841
RA_OF_ASC_NODE = 48.5179
ARG_OF_PERICENTER = 77.7641
MEAN_ANOMALY   = 282.3867

EPHEMERIS_TYPE = 0
CLASSIFICATION_TYPE = U
NORAD_CAT_ID   = 68104
ELEMENT_SET_NO = 999
REV_AT_EPOCH   = 443
BSTAR          = .13843E-2
MEAN_MOTION_DOT = .212173E-2
MEAN_MOTION_DDOT = 0

CCSDS_OMM_VERS = 2.0
CREATION_DATE  = 
ORIGINATOR     = 

OBJECT_NAME    = STARLINK-37021
OBJECT_ID      = 2026-044E
CENTER_NAME    = EARTH
REF_FRAME      = TEME
TIME_SYSTEM    = UTC
MEAN_ELEMENT_THEORY = SGP/SGP4

EPOCH          = 2026-03-28T10:48:12.532320
MEAN_MOTION    = 15.75031538
ECCENTRICITY   = .0001901
INCLINATION    = 97.2843
RA_OF_ASC_NODE = 48.5195
ARG_OF_PERICENTER = 81.9397
MEAN_ANOMALY   = 278.2084

EPHEMERIS_TYPE = 0
CLASSIFICATION_TYPE = U
NORAD_CAT_ID   = 68105
ELEMENT_SET_NO = 999
REV_AT_EPOCH   = 443
BSTAR          = -.81451E-3
MEAN_MOTION_DOT = -.119131E-2
MEAN_MOTION_DDOT = 0

CCSDS_OMM_VERS = 2.0
CREATION_DATE  = 
ORIGINATOR     = 

OBJECT_NAME    = STARLINK-37024
OBJECT_ID      = 2026-044F
CENTER_NAME    = EARTH
REF_FRAME      = TEME
TIME_SYSTEM    = UTC
MEAN_ELEMENT_THEORY = SGP/SGP4

EPOCH          = 2026-03-28T12:18:08.017056
MEAN_MOTION    = 15.75269362
ECCENTRICITY   = .0001546
INCLINATION    = 97.2843
RA_OF_ASC_NODE = 48.5876
ARG_OF_PERICENTER = 111.0928
MEAN_ANOMALY   = 249.0503

EPHEMERIS_TYPE = 0
CLASSIFICATION_TYPE = U
NORAD_CAT_ID   = 68106
ELEMENT_SET_NO = 999
REV_AT_EPOCH   = 444
BSTAR          = .14287E-2
MEAN_MOTION_DOT = .219287E-2
MEAN_MOTION_DDOT = 0

CCSDS_OMM_VERS = 2.0
CREATION_DATE  = 
ORIGINATOR     = 

OBJECT_NAME    = STARLINK-37005
OBJECT_ID      = 2026-044G
CENTER_NAME    = EARTH
REF_FRAME      = TEME
TIME_SYSTEM    = UTC
MEAN_ELEMENT_THEORY = SGP/SGP4

EPOCH          = 2026-03-28T10:50:43.367712
MEAN_MOTION    = 15.75253578
ECCENTRICITY   = .0002024
INCLINATION    = 97.2843
RA_OF_ASC_NODE = 48.5174
ARG_OF_PERICENTER = 102.2516
MEAN_ANOMALY   = 257.8976

EPHEMERIS_TYPE = 0
CLASSIFICATION_TYPE = U
NORAD_CAT_ID   = 68107
ELEMENT_SET_NO = 999
REV_AT_EPOCH   = 443
BSTAR          = .12109E-2
MEAN_MOTION_DOT = .184962E-2
MEAN_MOTION_DDOT = 0

