STARLINK-36787          
1 68094U 26042AB  26086.66668981 -.00060756  00000+0 -39459-3 0  9991
2 68094  53.1593 104.8129 0001085  94.2361 293.8406 15.75263541  4936
STARLINK-36790          
1 68095U 26042AC  26087.50001156 -.00067159  00000+0 -43750-3 0  9994
2 68095  53.1585 100.4609 0000998  68.7195 110.7906 15.75234842  5065
STARLINK-36328          
1 68096U 26042AD  26086.50369902 -.00796908  00000+0 -49254-2 0  9995
2 68096  53.1583 105.2594 0000907 116.3541 243.7574 15.78521578  4891
STARLINK-36853          
1 68097U 26042AE  26086.75750165  .00411016  00000+0  19783-2 0  9994
2 68097  53.1580 103.9995 0003142  75.7895 284.3477 15.80984131  4932
GLOBAL-34               
1 68098U 26043A   26087.38525432  .00013789  00000+0  44599-3 0  9992
2 68098  42.0228 327.5663 0003807  53.1656 306.9530 15.31851761  3431
STARLINK-37022          
1 68101U 26044A   26087.45507282  .00029158  00000+0  19606-3 0  9997
2 68101  97.2841  48.5128 0001857  66.8014 293.3446 15.75145378  4431
STARLINK-37046          
1 68102U 26044B   26087.45400576  .00210759  00000+0  13748-2 0  9995
2 68102  97.2839  48.5148 0001481 106.6028 253.5400 15.75264760  4437
STARLINK-37018          
1 68103U 26044C   26087.45259559  .00190020  00000+0  12432-2 0  9996
2 68103  97.2840  48.5168 0001561 113.7916 246.3513 15.75254163  4437
STARLINK-37041          
1 68104U 26044D   26087.45153914  .00212173  00000+0  13843-2 0  9996
2 68104  97.2841  48.5179 0002165  77.7641 282.3867 15.75257050  4436
STARLINK-37021          
1 68105U 26044E   26087.45014505 -.00119131  00000+0 -81451-3 0  9992
2 68105  97.2843  48.5195 0001901  81.9397 278.2084 15.75031538  4435
STARLINK-37024          
1 68106U 26044F   26087.51259279  .00219287  00000+0  14287-2 0  9992
2 68106  97.2843  48.5876 0001546 111.0928 249.0503 15.75269362  4443
STARLINK-37005          
1 68107U 26044G   26087.45189083  .00184962  00000+0  12109-2 0  9993
2 68107  97.2843  48.5174 0002024 102.2516 257.8976 15.75253578  4434
